STARLINK-6051           
1 56463U 23064R   24135.42761365  .00016052  00000+0  13495-2 0  9995
2 56463  70.0022  19.3863 0003148 276.2926  83.7874 14.98343055 56108
STARLINK-6043           
1 56464U 23064S   24135.39835935  .00000618  00000+0  59558-4 0  9990
2 56464  70.0010  19.2914 0002030 281.0927  79.0003 14.98341821 56107
STARLINK-6054           
1 56465U 23064T   24134.27967639 -.00001359  00000+0 -10611-3 0  9995
2 56465  69.9981 342.0345 0003195 270.9794  89.0999 14.98330781 56567
STARLINK-6053           
1 56466U 23064U   24135.39002656  .00012873  00000+0  10856-2 0  9990
2 56466  69.9987  19.2612 0003154 269.9590  90.1208 14.98297851 56107
STARLINK-6055           
1 56467U 23064V   24135.34391239  .00003634  00000+0  31220-3 0  9998
2 56467  69.9994 359.6338 0002921 268.2871  91.7953 14.98332446 56583
STARLINK-5998           
1 56468U 23064W   24135.38168908  .00013272  00000+0  11190-2 0  9990
2 56468  70.0002  19.2307 0002095 270.4750  89.6169 14.98296818 56100
STARLINK-5518           
1 56469U 23064X   24135.35644512  .00010878  00000+0  91857-3 0  9996
2 56469  69.9999 359.6774 0003041 282.6340  77.4479 14.98306200 56582
STARLINK-5523           
1 56470U 23064Y   24135.01430235  .00004245  00000+0  36323-3 0  9994
2 56470  70.0007   0.4896 0003549 269.7942  90.2810 14.98338796 56532
STARLINK-5521           
1 56471U 23064Z   24135.33973381 -.00000040  00000+0  44026-5 0  9995
2 56471  70.0015 359.6193 0002954 272.1633  87.9187 14.98353495 56583
STARLINK-5038           
1 56472U 23064AA  24135.00614096  .00023102  00000+0  19376-2 0  9995
2 56472  70.0012   0.4603 0003357 271.1850  88.8925 14.98328240 56531
STARLINK-5486           
1 56473U 23064AB  24135.06016485 -.00001759  00000+0 -13962-3 0  9992
2 56473  69.9996   0.2495 0003014 271.9011  88.1803 14.98335481 56548
STARLINK-5524           
1 56474U 23064AC  24134.88496400  .00016917  00000+0  14220-2 0  9998
2 56474  70.0012   0.8413 0003136 269.7830  90.2969 14.98333572 56159
STARLINK-5541           
1 56475U 23064AD  24135.04781317  .00005628  00000+0  47922-3 0  9995
2 56475  69.9998   0.2050 0002873 279.2888  80.7946 14.98316567 56544
STARLINK-5545           
1 56476U 23064AE  24135.00175042 -.00002388  00000+0 -19221-3 0  9997
2 56476  69.9986   0.4443 0002958 268.1430  91.9390 14.98361713 56533
STARLINK-5534           
1 56477U 23064AF  24135.04363306 -.00003285  00000+0 -26751-3 0  9997
2 56477  69.9988   0.1897 0003254 277.2585  82.8204 14.98353222 56548
STARLINK-6041           
1 56478U 23064AG  24135.32303402  .00001830  00000+0  16108-3 0  9997
2 56478  70.0021 359.5598 0001420 278.6717  81.4281 14.98328829 56583
STARLINK-6044           
1 56479U 23064AH  24134.89743402 -.00003391  00000+0 -27632-3 0  9997
2 56479  69.9995   0.4810 0002990 271.6070  88.4746 14.98356294 56162
STARLINK-6214           
1 56480U 23064AJ  24135.33136380  .00012846  00000+0  10799-2 0  9998
2 56480  70.0015 359.5879 0002513 296.9806  63.1096 14.98421644 56587
STARLINK-6222           
1 56481U 23064AK  24135.37311037  .00011199  00000+0  94568-3 0  9994
2 56481  69.9996 359.3332 0003076 276.5701  83.5108 14.98297480 56598
STARLINK-6220           
1 56482U 23064AL  24135.31886030  .00005927  00000+0  50434-3 0  9995
2 56482  69.9990 359.5445 0002628 275.6953  84.3906 14.98313778 56584
STARLINK-5868           
1 56483U 23064AM  24134.91414492  .00012571  00000+0  10595-2 0  9996
2 56483  70.0012   0.5366 0002932 273.6159  86.4664 14.98329140 56160
STARLINK-6221           
1 56484U 23064AN  24135.57756674  .00006351  00000+0  53980-3 0  9996
2 56484  69.9997 358.8410 0003030 276.0379  84.0434 14.98315008 56628
STARLINK-6210           
1 56485U 23064AP  24135.36059367  .00007909  00000+0  67026-3 0  9995
2 56485  70.0002 359.2874 0002779 277.6111  82.4732 14.98307986 56593
STARLINK-6201           
1 56486U 23064AQ  24135.03511959 -.00003368  00000+0 -27439-3 0  9991
2 56486  69.9995   0.1602 0002985 276.1285  83.9534 14.98357787 56543
STARLINK-6196           
1 56487U 23064AR  24135.31463723  .00003502  00000+0  30120-3 0  9997
2 56487  69.9985 339.6589 0002722 272.5218  87.5629 14.98325166 57072
STARLINK-6204           
1 56488U 23064AS  24134.86402166  .00006147  00000+0  52292-3 0  9993
2 56488  69.9981 340.8952 0002472 267.1709  92.9167 14.98300516 57006
STARLINK-5923           
1 56489U 23064AT  24135.57317529  .00011183  00000+0  94441-3 0  9999
2 56489  69.9988 338.9557 0002978 271.7347  88.3471 14.98294263 57113
STARLINK-5873           
1 56490U 23064AU  24134.85967803  .00003013  00000+0  26033-3 0  9992
2 56490  69.9977 340.8800 0002748 269.2810  90.8034 14.98315974 56641
STARLINK-5842           
1 56491U 23064AV  24135.56902286  .00034182  00000+0  28690-2 0  9997
2 56491  69.9988 338.9403 0002604 257.2628 102.8240 14.98189373 57114
STARLINK-5846           
1 56492U 23064AW  24135.56480784  .00006757  00000+0  57376-3 0  9993
2 56492  69.9989 338.9260 0002628 274.0538  86.0320 14.98317649 57111
STARLINK-5841           
1 56493U 23064AX  24135.51467016  .00009327  00000+0  78900-3 0  9994
2 56493  69.9993 318.8708 0003202 276.4099  83.6695 14.98300067 57606
STARLINK-5530           
1 56494U 23064AY  24135.56500048  .00037417  00000+0  31397-2 0  9992
2 56494  69.9988 338.9257 0003730 257.7722 102.3019 14.98170864 57119
STARLINK-5529           
1 56495U 23064AZ  24134.82210104 -.00002568  00000+0 -20740-3 0  9994
2 56495  69.9995 340.7493 0002927 266.9899  93.0925 14.98349342 56643
STARLINK-5526           
1 56496U 23064BA  24134.81794508  .00015476  00000+0  13023-2 0  9994
2 56496  69.9999 340.7341 0003239 267.9461  92.1327 14.98319521 56645
STARLINK-5527           
1 56497U 23064BB  24135.54829270  .00007612  00000+0  64525-3 0  9998
2 56497  69.9991 338.8685 0002762 280.2671  79.8176 14.98319888 57111
STARLINK-5522           
1 56498U 23064BC  24135.29359941  .00005897  00000+0  50181-3 0  9990
2 56498  69.9993 339.5845 0002866 271.2936  88.7894 14.98315402 57078
STARLINK-5775           
1 56503U 23065A   24135.26514582  .00014843  00000+0  11101-2 0  9998
2 56503  43.0026 221.0241 0001409 290.0189  70.0502 15.02585516 55890
STARLINK-5716           
1 56504U 23065B   24135.52770673  .00011315  00000+0  85045-3 0  9993
2 56504  43.0017 219.5502 0001352 272.7577  87.3110 15.02576067 55930
STARLINK-5763           
1 56505U 23065C   24135.52552938  .00024672  00000+0  18346-2 0  9995
2 56505  43.0016 219.5352 0001822 313.1708  46.8982 15.02544860 55934
STARLINK-5340           
1 56506U 23065D   24135.20116041  .00016953  00000+0  12653-2 0  9990
2 56506  43.0009 208.3871 0001271 293.5958  66.4751 15.02586384 56036
STARLINK-5333           
1 56507U 23065E   24135.53072301 -.00001282  00000+0 -79809-4 0  9996
2 56507  43.0040 180.5362 0001758 280.1163  79.9481 15.02545788 56388
STARLINK-5335           
1 56508U 23065F   24135.52219519  .00017208  00000+0  12830-2 0  9992
2 56508  43.0019 219.5096 0001325 285.7531  74.3165 15.02618030 55931
STARLINK-5334           
1 56509U 23065G   24135.51329559  .00017229  00000+0  12849-2 0  9991
2 56509  43.0024 219.4420 0001245 274.5401  85.5299 15.02607949 55930
STARLINK-5339           
1 56510U 23065H   24135.51995641  .00014079  00000+0  10534-2 0  9993
2 56510  43.0012 219.4925 0001322 271.1833  88.8858 15.02599890 55939
STARLINK-5351           
1 56511U 23065J   24135.51215741  .00023931  00000+0  17771-2 0  9997
2 56511  43.0021 219.4341 0001469 303.8555  56.2147 15.02609245 55934
STARLINK-5349           
1 56512U 23065K   24135.51663827  .00018650  00000+0  13895-2 0  9995
2 56512  43.0014 219.4671 0001788 308.5825  51.4857 15.02603194 55931
STARLINK-5329           
1 56513U 23065L   24135.50882729  .00017394  00000+0  12978-2 0  9994
2 56513  43.0017 219.4064 0001371 260.9681  99.1006 15.02586379 55930
STARLINK-5348           
1 56515U 23065N   24135.50551336  .00020507  00000+0  15271-2 0  9992
2 56515  43.0013 219.3825 0001370 271.6035  88.4651 15.02575700 55936
STARLINK-5342           
1 56516U 23065P   24135.51107841  .00019213  00000+0  14307-2 0  9993
2 56516  43.0013 219.4236 0001186 284.9652  75.1059 15.02609078 55932
STARLINK-5345           
1 56517U 23065Q   24135.49661604  .00015082  00000+0  11281-2 0  9991
2 56517  43.0013 219.3138 0001512 299.1070  60.9621 15.02570226 55937
STARLINK-5346           
1 56518U 23065R   24135.50216599  .00015920  00000+0  11893-2 0  9993
2 56518  43.0015 219.3556 0001365 260.5358  99.5330 15.02585852 55937
STARLINK-6313           
1 56519U 23065S   24134.62800062  .00032343  00000+0  23979-2 0  9996
2 56519  43.0021 223.9741 0001425 276.1206  83.9474 15.02542075 56582
STARLINK-6344           
1 56520U 23065T   24135.49885705  .00014162  00000+0  10598-2 0  9993
2 56520  43.0020 219.3303 0001286 279.1348  80.9348 15.02590779 55930
STARLINK-6333           
1 56521U 23065U   24135.52868803  .00014359  00000+0  10988-2 0  9999
2 56521  43.0016 218.6991 0001359 266.6213  93.4474 15.01733156 55941
STARLINK-6327           
1 56522U 23065V   24135.49331592  .00017659  00000+0  13178-2 0  9996
2 56522  43.0021 219.2881 0001177 275.6876  84.3832 15.02570720 55939
STARLINK-6328           
1 56523U 23065W   24135.40685663  .00011740  00000+0  88141-3 0  9997
2 56523  42.9998 219.4974 0001383 290.7258  69.3436 15.02589545 55924
STARLINK-6323           
1 56524U 23065X   24134.61803529  .00018353  00000+0  13689-2 0  9994
2 56524  43.0014 223.9026 0001180 291.5100  68.5617 15.02569017 56581
STARLINK-6329           
1 56525U 23065Y   24135.53314753  .00018847  00000+0  14062-2 0  9997
2 56525  43.0021 218.7377 0001326 276.5014  83.5677 15.02543657 55944
STARLINK-6317           
1 56526U 23065Z   24135.54202291  .00015912  00000+0  11889-2 0  9996
2 56526  43.0028 218.7917 0002777 286.7497  73.3041 15.02579498 55945
